*******************************************************************************
 Revised: Dec 12, 2013               Neptune                                899

 PHYSICAL DATA (update 2009-May-26):
  Mass (10^24 kg)       =   102.41        Density (g/cm^3)       =  1.638
  Equat. radius (1 bar) = 24766+-15 km    Polar radius (km)      = 24342+-30
  Volumetric mean radius= 24624+-21 km    Flattening             =  0.0171

  Rotation period       = 16.11+-0.01 hr  Rot. rate(10^-4 rad/s) =  1.083
  m = w^2a^3/GM         =  0.02609        Hydrostatic flat., fh  =  0.01804
  Inferred rot. period  = 16.7+-1.4 hr    ks = 3*J2/m            =  0.407
  Mom. of inert. I/MRo^2=                 I/MRo^2 (upper bound)  =  0.239
  Rocky core mass (Mc/M)=                 Y factor (He/H ratio)  =  0.235+-.040

  GM (km^3/s^2)         = 6,835,107       GM 1-sigma (km^3/s^2)  = +-15
  Equ. grav, ge (m/s^2) = 11.15           Pol. grav, gp (m/s^2)  = 11.41+-0.03

  Geometric albedo      =  0.41           Visual magnitude V(1,0)= -6.87
  Vis. mag. (opposition)= +7.84           Obliquity to orbit     = 29.56 deg
  Sidereal orbit period = 164.79132 yr    Sidereal orbit period  = 60190.029 d
  Mean daily motion     = 0.006020076dg/d Mean orbit velocity    = 5.4778 km/s

  Atmos. temp. (1 bar)  =  72+-2 K        Heat flow/mass (x10^7) =  2 erg/gm*s
  Planetary Solar Const =   1.47 W/m^2    Dipole tilt/offset     = 47deg/0.55Rp
  Escape velocity (km/s)=  23.5           Mag.dip.mom(gauss-Rp^3)= 0.133
  Aroche(ice)/Rp        =  2.98           Hill's sphere rad., Rp = 4700
*******************************************************************************


*******************************************************************************
Ephemeris / WWW_USER Sat Jul 15 14:11:49 2017 Pasadena, USA      / Horizons
*******************************************************************************
Target body name: Neptune (899)                   {source: nep081xl}
Center body name: Sun (10)                        {source: DE431mx}
Center-site name: BODY CENTER
*******************************************************************************
Start time      : A.D. 2017-Jul-10 00:00:00.0000 TDB
Stop  time      : A.D. 2020-Aug-13 00:00:00.0000 TDB
Step-size       : 1440 minutes
*******************************************************************************
Center geodetic : 0.00000000,0.00000000,0.0000000 {E-lon(deg),Lat(deg),Alt(km)}
Center cylindric: 0.00000000,0.00000000,0.0000000 {E-lon(deg),Dxy(km),Dz(km)}
Center radii    : 696000.0 x 696000.0 x 696000.0 k{Equator, meridian, pole}
Output units    : KM-S
Output type     : GEOMETRIC cartesian states
Output format   : 3 (position, velocity, LT, range, range-rate)
Reference frame : ICRF/J2000.0
Coordinate systm: Ecliptic and Mean Equinox of Reference Epoch
*******************************************************************************
            JDTDB,            Calendar Date (TDB),                      X,                      Y,                      Z,                     VX,                     VY,                     VZ,                     LT,                     RG,                     RR,
**************************************************************************************************************************************************************************************************************************************************************************
$$SOE
2458736.500000000, A.D. 2019-Sep-10 00:00:00.0000,  4.363284580104134E+09, -1.004640904540553E+09, -7.988068859840065E+07,  1.197620202937291E+00,  5.330397111649349E+00, -1.380018946162715E-01,  1.493754119002653E+04,  4.478162189834298E+09, -2.647370061977196E-02,
2458737.500000000, A.D. 2019-Sep-11 00:00:00.0000,  4.363388002677972E+09, -1.004180381558845E+09, -7.989261666732234E+07,  1.196352514487728E+00,  5.329940203706816E+00, -1.379795720009527E-01,  1.493753349268917E+04,  4.478159882230612E+09, -2.703066279104633E-02,
2458738.500000000, A.D. 2019-Sep-12 00:00:00.0000,  4.363491311006474E+09, -1.003719869462207E+09, -7.990451269566232E+07,  1.195124490426225E+00,  5.330198336559572E+00, -1.373303188877779E-01,  1.493752559630152E+04,  4.478157514953149E+09, -2.772062760405243E-02,
2458739.500000000, A.D. 2019-Sep-13 00:00:00.0000,  4.363594542270392E+09, -1.003259305303271E+09, -7.991634844984925E+07,  1.194633858115927E+00,  5.331057027413827E+00, -1.367179147828816E-01,  1.493751757295269E+04,  4.478155109613681E+09, -2.782592094333621E-02,
2458740.500000000, A.D. 2019-Sep-14 00:00:00.0000,  4.363697763782617E+09, -1.002798666923488E+09, -7.992815738502014E+07,  1.194812654800812E+00,  5.331778272628523E+00, -1.367678710690252E-01,  1.493750962690997E+04,  4.478152727450003E+09, -2.723605864498058E-02,
2458741.500000000, A.D. 2019-Sep-15 00:00:00.0000,  4.363801003092922E+09, -1.002337995958364E+09, -7.993999990839434E+07,  1.194897802466717E+00,  5.331766791981496E+00, -1.374179673500269E-01,  1.493750188247903E+04,  4.478150405728015E+09, -2.656253343897879E-02,
2458742.500000000, A.D. 2019-Sep-16 00:00:00.0000,  4.363904219379609E+09, -1.001877354607367E+09, -7.995190065948874E+07,  1.194223414089552E+00,  5.331188062218212E+00, -1.379828953797815E-01,  1.493749425489088E+04,  4.478148119034616E+09, -2.650381344324787E-02,
2458743.500000000, A.D. 2019-Sep-17 00:00:00.0000,  4.364007345825907E+09, -1.001416761057302E+09, -7.996382292910886E+07,  1.192912067917509E+00,  5.330796483319988E+00, -1.378657599420774E-01,  1.493748653829490E+04,  4.478145805657338E+09, -2.712007445049109E-02,
2458744.500000000, A.D. 2019-Sep-18 00:00:00.0000,  4.364110358982800E+09, -1.000956170598207E+09, -7.997570677000278E+07,  1.191747588846782E+00,  5.331152195590557E+00, -1.371777989928700E-01,  1.493747861948969E+04,  4.478143431659260E+09, -2.777061504746073E-02,
2458745.500000000, A.D. 2019-Sep-19 00:00:00.0000,  4.364213303109238E+09, -1.000495522041333E+09, -7.998753123818517E+07,  1.191361231221917E+00,  5.332039456859060E+00, -1.366229341433922E-01,  1.493747059547252E+04,  4.478141026119431E+09, -2.777914627736784E-02,
2458746.500000000, A.D. 2019-Sep-20 00:00:00.0000,  4.364316244211620E+09, -1.000034801249283E+09, -7.999933613844037E+07,  1.191576263840907E+00,  5.332690637153711E+00, -1.367668876014363E-01,  1.493746267270402E+04,  4.478138650933187E+09, -2.713612199410237E-02,
2458747.500000000, A.D. 2019-Sep-21 00:00:00.0000,  4.364419201504267E+09, -9.995740558144391E+08, -8.001118069475901E+07,  1.191591477732154E+00,  5.332583225172670E+00, -1.374497971549640E-01,  1.493745495268683E+04,  4.478136336530257E+09, -2.650870520976264E-02,
2458748.500000000, A.D. 2019-Sep-22 00:00:00.0000,  4.364522127455195E+09, -9.991133456456881E+08, -8.002308205971742E+07,  1.190813073404933E+00,  5.331982298400956E+00, -1.379522438326681E-01,  1.493744732653160E+04,  4.478134050266437E+09, -2.654795490201811E-02,
2458749.500000000, A.D. 2019-Sep-23 00:00:00.0000,  4.364624957127722E+09, -9.986526807715189E+08, -8.003499750642997E+07,  1.189471090751846E+00,  5.331665298506912E+00, -1.377421525560696E-01,  1.493743958799397E+04,  4.478131730311220E+09, -2.721278634832492E-02,
2458750.500000000, A.D. 2019-Sep-24 00:00:00.0000,  4.364727675591419E+09, -9.981920109266005E+08, -8.004686878711325E+07,  1.188380630353171E+00,  5.332114913892102E+00, -1.370272314138654E-01,  1.493743164761738E+04,  4.478129349846204E+09, -2.781252424998425E-02,
2458751.500000000, A.D. 2019-Sep-25 00:00:00.0000,  4.364830333417018E+09, -9.977312777395550E+08, -8.005868261044431E+07,  1.188095551841847E+00,  5.333017871279779E+00, -1.365393488720172E-01,  1.493742362562467E+04,  4.478126944913291E+09, -2.772410705966523E-02,
2458752.500000000, A.D. 2019-Sep-26 00:00:00.0000,  4.364932994161988E+09, -9.972704753388594E+08, -8.007048444115639E+07,  1.188333419839573E+00,  5.333590195464213E+00, -1.367746351379828E-01,  1.493741572706165E+04,  4.478124576983670E+09, -2.703914636447516E-02,
2458753.500000000, A.D. 2019-Sep-27 00:00:00.0000,  4.365035668373362E+09, -9.968096564502069E+08, -8.008233129398733E+07,  1.188268766628670E+00,  5.333391190962666E+00, -1.374783549010450E-01,  1.493740802884259E+04,  4.478122269115654E+09, -2.646884040760172E-02,
2458754.500000000, A.D. 2019-Sep-28 00:00:00.0000,  4.365138302631878E+09, -9.963488776549330E+08, -8.009423253723615E+07,  1.187390150581952E+00,  5.332780952339938E+00, -1.379094416344566E-01,  1.493740039984826E+04,  4.478119982000692E+09, -2.660543704990486E-02,
2458755.500000000, A.D. 2019-Sep-29 00:00:00.0000,  4.365240835004882E+09, -9.958881406488123E+08, -8.010614016637880E+07,  1.186031085516405E+00,  5.332546512377597E+00, -1.376098589828141E-01,  1.493739263704548E+04,  4.478117654770967E+09, -2.730725716226299E-02,
2458756.500000000, A.D. 2019-Sep-30 00:00:00.0000,  4.365343259338322E+09, -9.954273904806308E+08, -8.011799864237124E+07,  1.185023836634447E+00,  5.333084747808376E+00, -1.368801898250922E-01,  1.493738467629794E+04,  4.478115268198895E+09, -2.784569891232518E-02,
2458757.500000000, A.D. 2019-Oct-01 00:00:00.0000,  4.365445631638861E+09, -9.949665726064241E+08, -8.012980255681181E+07,  1.184835285829694E+00,  5.333990269382060E+00, -1.364675692466455E-01,  1.493737665896389E+04,  4.478112864662611E+09, -2.766184736088743E-02,
2458758.500000000, A.D. 2019-Oct-02 00:00:00.0000,  4.365548011915008E+09, -9.945056895226166E+08, -8.014160224686694E+07,  1.185082190097964E+00,  5.334476323530226E+00, -1.367899382633753E-01,  1.493736878508923E+04,  4.478110504134375E+09, -2.694692114037035E-02,
2458759.500000000, A.D. 2019-Oct-03 00:00:00.0000,  4.365650401864347E+09, -9.940447981759385E+08, -8.015345153004706E+07,  1.184929112844097E+00,  5.334191659240905E+00, -1.375021024511431E-01,  1.493736110564227E+04,  4.478108201894094E+09, -2.644374370389654E-02,
